{"type": "FeatureCollection", "features": [ {"type": "Feature", "properties": {"norad_id": 37054, "name": "FENGYUN 1C DEB", "group": "fengyun-1c-debris", "lat": -43.18264675060923, "lon": -8.247590968258827, "alt_km": 853.0953092069967, "timestamp": "2025-12-27T16:33:30.511518+00:00", "meta": {"OBJECT_NAME": "FENGYUN 1C DEB", "OBJECT_ID": "1999-025EEN", "EPOCH": "2025-12-18T04:22:47.839296", "MEAN_MOTION": 14.19457855, "ECCENTRICITY": 0.01012295, "INCLINATION": 98.5505, "RA_OF_ASC_NODE": 334.4558, "ARG_OF_PERICENTER": 89.7023, "MEAN_ANOMALY": 271.5753, "EPHEMERIS_TYPE": 0, "CLASSIFICATION_TYPE": "U", "NORAD_CAT_ID": 37054, "ELEMENT_SET_NO": 999, "REV_AT_EPOCH": 64506, "BSTAR": 0.00022919283, "MEAN_MOTION_DOT": 4.67e-06, "MEAN_MOTION_DDOT": 0}, "tle": {"line1": "1 37054U 99025EEN 25352.18249814  .00000467  00000+0  22919-3 0  9990", "line2": "2 37054  98.5505 334.4558 0101229  89.7023 271.5753 14.19457855645069"}}, "geometry": {"type": "Point", "coordinates": [-8.247590968258827, -43.18264675060923]}}, {"type": "Feature", "properties": {"norad_id": 37056, "name": "FENGYUN 1C DEB", "group": "fengyun-1c-debris", "lat": 9.663529285562333, "lon": 23.440915927655205, "alt_km": 724.3162849087266, "timestamp": "2025-12-27T16:33:30.511533+00:00", "meta": {"OBJECT_NAME": "FENGYUN 1C DEB", "OBJECT_ID": "1999-025EEQ", "EPOCH": "2025-12-27T06:34:47.638272", "MEAN_MOTION": 14.50499055, "ECCENTRICITY": 0.0269029, "INCLINATION": 98.9811, "RA_OF_ASC_NODE": 24.5402, "ARG_OF_PERICENTER": 102.3003, "MEAN_ANOMALY": 260.8447, "EPHEMERIS_TYPE": 0, "CLASSIFICATION_TYPE": "U", "NORAD_CAT_ID": 37056, "ELEMENT_SET_NO": 999, "REV_AT_EPOCH": 65622, "BSTAR": 0.00031812, "MEAN_MOTION_DOT": 1.925e-05, "MEAN_MOTION_DDOT": 0}, "tle": {"line1": "1 37056U 99025EEQ 25361.27416248  .00001925  00000+0  31812-3 0  9991", "line2": "2 37056  98.9811  24.5402 0269029 102.3003 260.8447 14.50499055656227"}}, "geometry": {"type": "Point", "coordinates": [23.440915927655205, 9.663529285562333]}}, {"type": "Feature", "properties": {"norad_id": 37057, "name": "FENGYUN 1C DEB", "group": "fengyun-1c-debris", "lat": 80.20028935279514, "lon": -49.36283609945651, "alt_km": 696.4870757552799, "timestamp": "2025-12-27T16:33:30.511544+00:00", "meta": {"OBJECT_NAME": "FENGYUN 1C DEB", "OBJECT_ID": "1999-025EER", "EPOCH": "2025-12-19T18:57:33.353568", "MEAN_MOTION": 13.96116671, "ECCENTRICITY": 0.02853199, "INCLINATION": 98.9208, "RA_OF_ASC_NODE": 8.387, "ARG_OF_PERICENTER": 120.0686, "MEAN_ANOMALY": 242.91, "EPHEMERIS_TYPE": 0, "CLASSIFICATION_TYPE": "U", "NORAD_CAT_ID": 37057, "ELEMENT_SET_NO": 999, "REV_AT_EPOCH": 63696, "BSTAR": 7.2468399e-05, "MEAN_MOTION_DOT": 9.9e-07, "MEAN_MOTION_DDOT": 0}, "tle": {"line1": "1 37057U 99025EER 25353.78996937  .00000099  00000+0  72468-4 0  9991", "line2": "2 37057  98.9208   8.3870 0285319 120.0686 242.9100 13.96116671636966"}}, "geometry": {"type": "Point", "coordinates": [-49.36283609945651, 80.20028935279514]}}, {"type": "Feature", "properties": {"norad_id": 37061, "name": "FENGYUN 1C DEB", "group": "fengyun-1c-debris", "lat": -61.6815830635878, "lon": 77.94197487869795, "alt_km": 684.3070819256009, "timestamp": "2025-12-27T16:33:30.511554+00:00", "meta": {"OBJECT_NAME": "FENGYUN 1C DEB", "OBJECT_ID": "1999-025EEV", "EPOCH": "2025-12-26T09:45:30.875040", "MEAN_MOTION": 13.13638059, "ECCENTRICITY": 0.0800883, "INCLINATION": 98.0823, "RA_OF_ASC_NODE": 61.6627, "ARG_OF_PERICENTER": 331.6918, "MEAN_ANOMALY": 24.2786, "EPHEMERIS_TYPE": 0, "CLASSIFICATION_TYPE": "U", "NORAD_CAT_ID": 37061, "ELEMENT_SET_NO": 999, "REV_AT_EPOCH": 8335, "BSTAR": 0.0027336, "MEAN_MOTION_DOT": 5.286e-05, "MEAN_MOTION_DDOT": 0}, "tle": {"line1": "1 37061U 99025EEV 25360.40660735  .00005286  00000+0  27336-2 0  9992", "line2": "2 37061  98.0823  61.6627 0800883 331.6918  24.2786 13.13638059 83352"}}, "geometry": {"type": "Point", "coordinates": [77.94197487869795, -61.6815830635878]}}, {"type": "Feature", "properties": {"norad_id": 37065, "name": "FENGYUN 1C DEB", "group": "fengyun-1c-debris", "lat": 30.9134902434689, "lon": 173.59916635390167, "alt_km": 1257.9337868787325, "timestamp": "2025-12-27T16:33:30.511564+00:00", "meta": {"OBJECT_NAME": "FENGYUN 1C DEB", "OBJECT_ID": "1999-025EEZ", "EPOCH": "2025-12-13T18:30:23.335488", "MEAN_MOTION": 13.59126537, "ECCENTRICITY": 0.02987556, "INCLINATION": 103.2861, "RA_OF_ASC_NODE": 162.9273, "ARG_OF_PERICENTER": 240.3853, "MEAN_ANOMALY": 116.7203, "EPHEMERIS_TYPE": 0, "CLASSIFICATION_TYPE": "U", "NORAD_CAT_ID": 37065, "ELEMENT_SET_NO": 999, "REV_AT_EPOCH": 22216, "BSTAR": 0.0032978969, "MEAN_MOTION_DOT": 3.181e-05, "MEAN_MOTION_DDOT": 0}, "tle": {"line1": "1 37065U 99025EEZ 25347.77110342  .00003181  00000+0  32979-2 0  9996", "line2": "2 37065 103.2861 162.9273 0298755 240.3853 116.7203 13.59126537222160"}}, "geometry": {"type": "Point", "coordinates": [173.59916635390167, 30.9134902434689]}}, {"type": "Feature", "properties": {"norad_id": 37067, "name": "FENGYUN 1C DEB", "group": "fengyun-1c-debris", "lat": -63.73822760507929, "lon": 103.96594949210234, "alt_km": 1012.7707327573662, "timestamp": "2025-12-27T16:33:30.511576+00:00", "meta": {"OBJECT_NAME": "FENGYUN 1C DEB", "OBJECT_ID": "1999-025EFB", "EPOCH": "2025-12-22T18:48:08.678592", "MEAN_MOTION": 14.00413613, "ECCENTRICITY": 0.01569364, "INCLINATION": 99.539, "RA_OF_ASC_NODE": 298.7728, "ARG_OF_PERICENTER": 84.4124, "MEAN_ANOMALY": 277.4913, "EPHEMERIS_TYPE": 0, "CLASSIFICATION_TYPE": "U", "NORAD_CAT_ID": 37067, "ELEMENT_SET_NO": 999, "REV_AT_EPOCH": 57549, "BSTAR": 0.0037911676, "MEAN_MOTION_DOT": 6.209e-05, "MEAN_MOTION_DDOT": 0}, "tle": {"line1": "1 37067U 99025EFB 25356.78343378  .00006209  00000+0  37912-2 0  9992", "line2": "2 37067  99.5390 298.7728 0156936  84.4124 277.4913 14.00413613575492"}}, "geometry": {"type": "Point", "coordinates": [103.96594949210234, -63.73822760507929]}}, {"type": "Feature", "properties": {"norad_id": 37069, "name": "FENGYUN 1C DEB", "group": "fengyun-1c-debris", "lat": 14.193870681546061, "lon": -35.7004839203395, "alt_km": 1409.9207213726759, "timestamp": "2025-12-27T16:33:30.511586+00:00", "meta": {"OBJECT_NAME": "FENGYUN 1C DEB", "OBJECT_ID": "1999-025EFD", "EPOCH": "2025-12-26T15:21:19.021536", "MEAN_MOTION": 13.38018946, "ECCENTRICITY": 0.04228912, "INCLINATION": 95.8487, "RA_OF_ASC_NODE": 325.1775, "ARG_OF_PERICENTER": 219.007, "MEAN_ANOMALY": 137.9858, "EPHEMERIS_TYPE": 0, "CLASSIFICATION_TYPE": "U", "NORAD_CAT_ID": 37069, "ELEMENT_SET_NO": 999, "REV_AT_EPOCH": 87894, "BSTAR": 0.0014486319, "MEAN_MOTION_DOT": 1.264e-05, "MEAN_MOTION_DDOT": 0}, "tle": {"line1": "1 37069U 99025EFD 25360.63980349  .00001264  00000+0  14486-2 0  9995", "line2": "2 37069  95.8487 325.1775 0422891 219.0070 137.9858 13.38018946878943"}}, "geometry": {"type": "Point", "coordinates": [-35.7004839203395, 14.193870681546061]}}, {"type": "Feature", "properties": {"norad_id": 37077, "name": "FENGYUN 1C DEB", "group": "fengyun-1c-debris", "lat": 80.94636884479439, "lon": -9.164532533552794, "alt_km": 812.3381880213237, "timestamp": "2025-12-27T16:33:30.511598+00:00", "meta": {"OBJECT_NAME": "FENGYUN 1C DEB", "OBJECT_ID": "1999-025EFM", "EPOCH": "2025-12-24T23:09:34.944192", "MEAN_MOTION": 14.41222294, "ECCENTRICITY": 0.00948197, "INCLINATION": 99.0343, "RA_OF_ASC_NODE": 74.7944, "ARG_OF_PERICENTER": 292.3292, "MEAN_ANOMALY": 66.7866, "EPHEMERIS_TYPE": 0, "CLASSIFICATION_TYPE": "U", "NORAD_CAT_ID": 37077, "ELEMENT_SET_NO": 999, "REV_AT_EPOCH": 85131, "BSTAR": 0.00035268117, "MEAN_MOTION_DOT": 1.148e-05, "MEAN_MOTION_DDOT": 0}, "tle": {"line1": "1 37077U 99025EFM 25358.96498778  .00001148  00000+0  35268-3 0  9990", "line2": "2 37077  99.0343  74.7944 0094819 292.3292  66.7866 14.41222294851317"}}, "geometry": {"type": "Point", "coordinates": [-9.164532533552794, 80.94636884479439]}}, {"type": "Feature", "properties": {"norad_id": 37079, "name": "FENGYUN 1C DEB", "group": "fengyun-1c-debris", "lat": -52.08594983875542, "lon": -53.88594740795724, "alt_km": 704.7855929100424, "timestamp": "2025-12-27T16:33:30.511608+00:00", "meta": {"OBJECT_NAME": "FENGYUN 1C DEB", "OBJECT_ID": "1999-025EFP", "EPOCH": "2025-12-18T02:53:46.135104", "MEAN_MOTION": 14.6004098, "ECCENTRICITY": 0.00113024, "INCLINATION": 98.8569, "RA_OF_ASC_NODE": 127.4448, "ARG_OF_PERICENTER": 127.1954, "MEAN_ANOMALY": 233.0277, "EPHEMERIS_TYPE": 0, "CLASSIFICATION_TYPE": "U", "NORAD_CAT_ID": 37079, "ELEMENT_SET_NO": 999, "REV_AT_EPOCH": 64694, "BSTAR": 0.0027811281, "MEAN_MOTION_DOT": 0.00013341, "MEAN_MOTION_DDOT": 0}, "tle": {"line1": "1 37079U 99025EFP 25352.12067286  .00013341  00000+0  27811-2 0  9992", "line2": "2 37079  98.8569 127.4448 0011302 127.1954 233.0277 14.60040980646944"}}, "geometry": {"type": "Point", "coordinates": [-53.88594740795724, -52.08594983875542]}}, {"type": "Feature", "properties": {"norad_id": 37081, "name": "FENGYUN 1C DEB", "group": "fengyun-1c-debris", "lat": 69.80478784348203, "lon": -1.7918576189984987, "alt_km": 1023.2264633901377, "timestamp": "2025-12-27T16:33:30.511618+00:00", "meta": {"OBJECT_NAME": "FENGYUN 1C DEB", "OBJECT_ID": "1999-025EFR", "EPOCH": "2025-12-27T04:09:17.074656", "MEAN_MOTION": 14.14158466, "ECCENTRICITY": 0.0268303, "INCLINATION": 98.7021, "RA_OF_ASC_NODE": 153.0983, "ARG_OF_PERICENTER": 306.7251, "MEAN_ANOMALY": 50.9549, "EPHEMERIS_TYPE": 0, "CLASSIFICATION_TYPE": "U", "NORAD_CAT_ID": 37081, "ELEMENT_SET_NO": 999, "REV_AT_EPOCH": 58778, "BSTAR": 0.0056615, "MEAN_MOTION_DOT": 0.00015225, "MEAN_MOTION_DDOT": 0}, "tle": {"line1": "1 37081U 99025EFR 25361.17311429  .00015225  00000+0  56615-2 0  9998", "line2": "2 37081  98.7021 153.0983 0268303 306.7251  50.9549 14.14158466587780"}}, "geometry": {"type": "Point", "coordinates": [-1.7918576189984987, 69.80478784348203]}}]}